NORAD_CAT_ID,OBJECT_NAME,OBJECT_TYPE,EPOCH,MEAN_MOTION,ECCENTRICITY,INCLINATION,RA_OF_ASC_NODE,ARG_OF_PERICENTER,MEAN_ANOMALY,BSTAR,MEAN_MOTION_DOT,MEAN_MOTION_DDOT,TLE_LINE0,TLE_LINE1,TLE_LINE2,SEMIMAJOR_AXIS,PERIOD,APOGEE,PERIGEE,DECAYED
52336.0,STARLINK-3823,PAYLOAD,2024-07-24 10:25:44,15.08849514,0.0003034,53.2187,352.1454,98.3092,261.8245,0.00011564,1.553e-05,0.0,0 STARLINK-3823,1 52336U 22045F   24206.43454230  .00001553  00000-0  11564-3 0  9995,2 52336  53.2187 352.1454 0003034  98.3092 261.8245 15.08849514126082,6917.851,95.437,541.815,537.617,0.0
52336.0,STARLINK-3823,PAYLOAD,2024-07-24 19:58:03,15.08837517,0.0002309,53.2178,350.364,109.8063,250.3178,-7.1993e-06,-4.03e-06,0.0,0 STARLINK-3823,1 52336U 22045F   24206.83199034 -.00000403  00000-0 -71993-5 0  9996,2 52336  53.2178 350.3640 0002309 109.8063 250.3178 15.08837517126144,6917.888,95.438,541.35,538.156,0.0
52336.0,STARLINK-3823,PAYLOAD,2024-07-25 10:16:32,15.08842978,0.0001876,53.2153,347.6838,106.6478,253.472,-2.3597e-05,-6.64e-06,0.0,0 STARLINK-3823,1 52336U 22045F   24207.42815082 -.00000664  00000-0 -23597-4 0  9995,2 52336  53.2153 347.6838 0001876 106.6478 253.4720 15.08842978126232,6917.871,95.437,541.034,538.438,0.0
52336.0,STARLINK-3823,PAYLOAD,2024-07-26 02:10:23,15.08844967,0.0001872,53.2152,344.7093,94.3498,265.7708,5.2189e-05,5.43e-06,0.0,0 STARLINK-3823,1 52336U 22045F   24208.09054729  .00000543  00000-0  52189-4 0  9995,2 52336  53.2152 344.7093 0001872  94.3498 265.7708 15.08844967126336,6917.865,95.437,541.025,538.435,0.0
52336.0,STARLINK-3823,PAYLOAD,2024-07-26 08:31:55,15.08835463,0.0001078,53.2156,343.5245,104.6598,255.4514,0.0002032,2.947e-05,0.0,0 STARLINK-3823,1 52336U 22045F   24208.35550841  .00002947  00000-0  20320-3 0  9991,2 52336  53.2156 343.5245 0001078 104.6598 255.4514 15.08835463126376,6917.894,95.438,540.505,539.014,0.0
52336.0,STARLINK-3823,PAYLOAD,2024-07-26 13:18:04,15.0885512,8.32e-05,53.2184,342.6347,69.8456,290.2626,6.8586e-05,8.04e-06,0.0,0 STARLINK-3823,1 52336U 22045F   24208.55421928  .00000804  00000-0  68586-4 0  9993,2 52336  53.2184 342.6347 0000832  69.8456 290.2626 15.08855120126409,6917.834,95.437,540.275,539.124,0.0
52336.0,STARLINK-3823,PAYLOAD,2024-07-26 18:04:12,15.08858595,0.0001235,53.2171,341.7351,121.3317,238.7796,0.00024736,3.653e-05,0.0,0 STARLINK-3823,1 52336U 22045F   24208.75292777  .00003653  00000-0  24736-3 0  9996,2 52336  53.2171 341.7351 0001235 121.3317 238.7796 15.08858595126435,6917.824,95.436,540.543,538.834,0.0
52336.0,STARLINK-3823,PAYLOAD,2024-07-27 11:33:29,15.08839647,0.0001814,53.2184,338.4716,98.2141,261.9057,2.1548e-05,5.5e-07,0.0,0 STARLINK-3823,1 52336U 22045F   24209.48159059  .00000055  00000-0  21548-4 0  9994,2 52336  53.2184 338.4716 0001814  98.2141 261.9057 15.08839647126544,6917.881,95.438,541.001,538.492,0.0
52336.0,STARLINK-3823,PAYLOAD,2024-07-27 17:55:02,15.08839551,0.0001548,53.2196,337.2822,93.8387,266.2782,1.9567e-05,2.3e-07,0.0,0 STARLINK-3823,1 52336U 22045F   24209.74655103  .00000023  00000-0  19567-4 0  9997,2 52336  53.2196 337.2822 0001548  93.8387 266.2782 15.08839551126580,6917.882,95.438,540.818,538.676,0.0
52336.0,STARLINK-3823,PAYLOAD,2024-07-28 12:59:39,15.08848226,0.0001551,53.2178,333.7122,83.8348,276.2821,5.3057e-05,5.57e-06,0.0,0 STARLINK-3823,1 52336U 22045F   24210.54142381  .00000557  00000-0  53057-4 0  9990,2 52336  53.2178 333.7122 0001551  83.8348 276.2821 15.08848226126702,6917.855,95.437,540.793,538.647,0.0
52336.0,STARLINK-3823,PAYLOAD,2024-07-28 17:45:46,15.08872993,0.0002199,53.2173,332.8172,124.6638,235.4561,-0.00040406,-6.719e-05,0.0,0 STARLINK-3823,1 52336U 22045F   24210.74012620 -.00006719  00000-0 -40406-3 0  9995,2 52336  53.2173 332.8172 0002199 124.6638 235.4561 15.08872993126736,6917.78,95.435,541.166,538.123,0.0
52336.0,STARLINK-3823,PAYLOAD,2024-07-29 01:42:44,15.08842949,0.0001207,53.2168,331.3332,78.9567,281.1561,0.00022734,3.332e-05,0.0,0 STARLINK-3823,1 52336U 22045F   24211.07134489  .00003332  00000-0  22734-3 0  9990,2 52336  53.2168 331.3332 0001207  78.9567 281.1561 15.08842949126784,6917.871,95.437,540.571,538.901,0.0
52336.0,STARLINK-3823,PAYLOAD,2024-07-29 14:25:49,15.0884419,0.0001368,53.2164,328.9527,88.7322,271.3827,0.00013086,1.796e-05,0.0,0 STARLINK-3823,1 52336U 22045F   24211.60126470  .00001796  00000-0  13086-3 0  9992,2 52336  53.2164 328.9527 0001368  88.7322 271.3827 15.08844190126869,6917.868,95.437,540.679,538.786,0.0
52336.0,STARLINK-3823,PAYLOAD,2024-07-29 19:11:58,15.08850824,0.0001484,53.2161,328.0614,89.2136,270.9026,0.00021534,3.142e-05,0.0,0 STARLINK-3823,1 52336U 22045F   24211.79998118  .00003142  00000-0  21534-3 0  9992,2 52336  53.2161 328.0614 0001484  89.2136 270.9026 15.08850824126892,6917.847,95.437,540.739,538.686,0.0
52336.0,STARLINK-3823,PAYLOAD,2024-07-31 12:31:59,15.0884981,0.0001515,53.2189,320.3281,88.2135,271.9031,0.00018344,2.633e-05,0.0,0 STARLINK-3823,1 52336U 22045F   24213.52221998  .00002633  00000-0  18344-3 0  9999,2 52336  53.2189 320.3281 0001515  88.2135 271.9031 15.08849810127150,6917.85,95.437,540.763,538.667,0.0
52336.0,STARLINK-3823,PAYLOAD,2024-07-31 14:07:22,15.08855948,0.000128,53.2167,320.0331,89.7383,270.3756,0.00028286,4.219e-05,0.0,0 STARLINK-3823,1 52336U 22045F   24213.58845705  .00004219  00000-0  28286-3 0  9991,2 52336  53.2167 320.0331 0001280  89.7383 270.3756 15.08855948127166,6917.832,95.437,540.582,538.811,0.0
52336.0,STARLINK-3823,PAYLOAD,2024-08-01 13:58:10,15.08847793,0.0001696,53.2172,315.5767,115.6765,244.4403,2.7732e-05,1.53e-06,0.0,0 STARLINK-3823,1 52336U 22045F   24214.58206034  .00000153  00000-0  27732-4 0  9997,2 52336  53.2172 315.5767 0001696 115.6765 244.4403 15.08847793127315,6917.857,95.437,540.895,538.548,0.0
52336.0,STARLINK-3823,PAYLOAD,2024-08-01 15:33:32,15.08854269,0.000155,53.2176,315.2765,103.3534,256.7631,0.00015866,2.239e-05,0.0,0 STARLINK-3823,1 52336U 22045F   24214.64829827  .00002239  00000-0  15866-3 0  9996,2 52336  53.2176 315.2765 0001550 103.3534 256.7631 15.08854269127327,6917.837,95.437,540.774,538.63,0.0
52336.0,STARLINK-3823,PAYLOAD,2024-08-02 13:48:57,15.08831072,0.0001554,53.217,311.1109,79.7769,280.3398,-7.6682e-05,-1.508e-05,0.0,0 STARLINK-3823,1 52336U 22045F   24215.57566983 -.00001508  00000-0 -76682-4 0  9994,2 52336  53.2170 311.1109 0001554  79.7769 280.3398 15.08831072127463,6917.908,95.438,540.848,538.698,0.0
52336.0,STARLINK-3823,PAYLOAD,2024-08-02 15:24:21,15.08831498,0.0001586,53.2169,310.8105,78.4187,281.6983,-5.8712e-05,-1.222e-05,0.0,0 STARLINK-3823,1 52336U 22045F   24215.64190984 -.00001222  00000-0 -58712-4 0  9993,2 52336  53.2169 310.8105 0001586  78.4187 281.6983 15.08831498127475,6917.906,95.438,540.869,538.674,0.0
52336.0,STARLINK-3823,PAYLOAD,2024-08-03 12:04:21,15.08847528,0.000159,53.2169,306.9438,80.6025,279.5147,0.00046536,7.127e-05,0.0,0 STARLINK-3823,1 52336U 22045F   24216.50303217  .00007127  00000-0  46536-3 0  9992,2 52336  53.2169 306.9438 0001590  80.6025 279.5147 15.08847528127605,6917.857,95.437,540.822,538.622,0.0
52336.0,STARLINK-3823,PAYLOAD,2024-08-03 13:39:45,15.08852314,0.0001458,53.2163,306.6499,84.309,275.8068,0.0005828,9.003e-05,0.0,0 STARLINK-3823,1 52336U 22045F   24216.56927095  .00009003  00000-0  58280-3 0  9998,2 52336  53.2163 306.6499 0001458  84.3090 275.8068 15.08852314127610,6917.843,95.437,540.716,538.699,0.0
52336.0,STARLINK-3823,PAYLOAD,2024-08-03 15:15:08,15.08855465,0.0001431,53.2159,306.3528,84.5642,275.5513,0.00082345,0.00012847,0.0,0 STARLINK-3823,1 52336U 22045F   24216.63551115  .00012847  00000-0  82345-3 0  9991,2 52336  53.2159 306.3528 0001431  84.5642 275.5513 15.08855465127624,6917.833,95.437,540.688,538.708,0.0
52336.0,STARLINK-3823,PAYLOAD,2024-08-04 10:19:45,15.08846624,0.0001487,53.2156,302.7869,95.172,264.9441,0.0002012,2.916e-05,0.0,0 STARLINK-3823,1 52336U 22045F   24217.43038974  .00002916  00000-0  20120-3 0  9992,2 52336  53.2156 302.7869 0001487  95.1720 264.9441 15.08846624127747,6917.86,95.437,540.754,538.696,0.0
52336.0,STARLINK-3823,PAYLOAD,2024-08-04 13:30:31,15.08858463,0.0001394,53.2151,302.1916,93.2843,266.8309,0.00052316,8.052e-05,0.0,0 STARLINK-3823,1 52336U 22045F   24217.56286636  .00008052  00000-0  52316-3 0  9995,2 52336  53.2151 302.1916 0001394  93.2843 266.8309 15.08858463127761,6917.824,95.436,540.653,538.725,0.0
52336.0,STARLINK-3823,PAYLOAD,2024-08-05 11:45:55,15.08854517,0.0001572,53.216,298.0264,86.622,273.4951,0.00022394,3.279e-05,0.0,0 STARLINK-3823,1 52336U 22045F   24218.49022157  .00003279  00000-0  22394-3 0  9993,2 52336  53.2160 298.0264 0001572  86.6220 273.4951 15.08854517127902,6917.836,95.437,540.789,538.614,0.0
52336.0,STARLINK-3823,PAYLOAD,2024-08-06 05:15:10,15.08822185,0.0001665,53.2145,294.7583,89.8183,270.3,-0.00029233,-4.935e-05,0.0,0 STARLINK-3823,1 52336U 22045F   24219.21887441 -.00004935  00000-0 -29233-3 0  9990,2 52336  53.2145 294.7583 0001665  89.8183 270.3000 15.08822185128018,6917.935,95.439,540.952,538.648,0.0
52336.0,STARLINK-3823,PAYLOAD,2024-08-06 10:01:20,15.08823116,0.0001709,53.2171,293.8616,128.3518,231.7628,-3.971e-05,-9.2e-06,0.0,0 STARLINK-3823,1 52336U 22045F   24219.41759768 -.00000920  00000-0 -39710-4 0  9994,2 52336  53.2171 293.8616 0001709 128.3518 231.7628 15.08823116128049,6917.932,95.439,540.979,538.615,0.0
52336.0,STARLINK-3823,PAYLOAD,2024-08-07 05:05:57,15.08837276,0.0001213,53.217,290.2967,95.3274,264.7857,0.00023476,3.45e-05,0.0,0 STARLINK-3823,1 52336U 22045F   24220.21247579  .00003450  00000-0  23476-3 0  9996,2 52336  53.2170 290.2967 0001213  95.3274 264.7857 15.08837276128165,6917.889,95.438,540.593,538.915,0.0
52336.0,STARLINK-3823,PAYLOAD,2024-08-07 11:27:30,15.08853053,0.0001691,53.2163,289.1074,96.2418,263.8767,0.0011271,0.00017702,0.0,0 STARLINK-3823,1 52336U 22045F   24220.47743828  .00017702  00000-0  11271-2 0  9996,2 52336  53.2163 289.1074 0001691  96.2418 263.8767 15.08853053128209,6917.84,95.437,540.875,538.536,0.0
